[Satellite]
VERSION=1.1
NAME=SL-14 R/B
NICKNAME=SL-14 R/B
TLE1=1 20262U 89080C   15055.05109024  .00000201  00000-0  54998-4 0  9996
TLE2=2 20262  82.5899 236.6457 1238427  20.8339 343.8953 12.48625124156350
